OBJECT_NAME,OBJECT_ID,EPOCH,MEAN_MOTION,ECCENTRICITY,INCLINATION,RA_OF_ASC_NODE,ARG_OF_PERICENTER,MEAN_ANOMALY,EPHEMERIS_TYPE,CLASSIFICATION_TYPE,NORAD_CAT_ID,ELEMENT_SET_NO,REV_AT_EPOCH,BSTAR,MEAN_MOTION_DOT,MEAN_MOTION_DDOT
STARLINK-31114,2024-011B,2026-06-20T09:33:59.389056,15.30178040,.0001156,53.1601,254.6296,92.6303,267.4830,0,U,58766,999,13602,-.97019E-4,-.3229E-4,0
STARLINK-31140,2024-011C,2026-06-19T12:18:16.426368,15.34391878,.00011018,53.1591,260.4490,106.5565,253.5558,0,U,58767,999,13586,.65419559E-4,.1834E-4,0
STARLINK-31146,2024-011E,2026-06-20T10:20:30.560064,15.34391153,.0001087,53.1592,256.2290,86.4480,273.6647,0,U,58769,999,13600,.11258E-3,.3428E-4,0
STARLINK-31143,2024-011F,2026-06-18T05:19:04.048032,15.30193975,.0001501,53.1625,266.6183,110.8787,249.2375,0,U,58770,999,13566,.55953E-4,.1298E-4,0
STARLINK-31135,2024-011G,2026-06-20T10:52:50.096640,15.30192438,.0001543,53.1628,254.2610,107.4982,252.6188,0,U,58771,999,13603,.2834E-4,.48E-5,0
STARLINK-31136,2024-011H,2026-06-19T12:09:11.422944,15.34387933,.00010987,53.1614,260.4086,88.9759,271.1370,0,U,58772,999,13585,-.72576E-5,-.621E-5,0
STARLINK-31073,2024-011J,2026-06-20T09:25:36.833952,15.30198380,.0001369,53.1607,256.7020,108.5680,251.5469,0,U,58773,999,13599,.21294E-4,.271E-5,0
STARLINK-31122,2024-011K,2026-06-20T09:34:43.688928,15.30193616,.0001243,53.1599,256.7313,93.3049,266.8094,0,U,58774,999,13599,.53786E-4,.1234E-4,0
STARLINK-31123,2024-011L,2026-06-20T10:53:42.666720,15.34434067,.0001856,53.1575,255.6587,16.9563,343.1501,0,U,58775,999,926,.71795E-3,.23985E-3,0
STARLINK-31117,2024-011M,2026-06-20T09:45:22.450176,15.30194712,.0001178,53.1602,256.7765,80.9163,279.1971,0,U,58776,999,13599,.23665E-4,.342E-5,0
STARLINK-31132,2024-011N,2026-06-20T06:38:22.134912,15.31713498,.0001275,53.1608,166.4647,97.1003,263.0144,0,U,58777,999,13727,.37047E-4,.785E-5,0
STARLINK-31120,2024-011P,2026-06-20T10:17:28.466016,15.34392163,.0001275,53.1606,256.2048,74.4587,285.6557,0,U,58778,999,13600,.19148E-4,.271E-5,0
STARLINK-31142,2024-011Q,2026-06-20T09:42:19.919808,15.30194847,.0001202,53.1609,256.7642,99.2151,260.8986,0,U,58779,999,13599,.22954E-5,-.291E-5,0
STARLINK-31099,2024-011S,2026-06-20T09:37:46.392096,15.30191707,.000114,53.1605,256.7411,92.0102,268.1030,0,U,58781,999,13599,.1625E-4,.122E-5,0
STARLINK-31047,2024-011U,2026-06-20T09:30:19.964160,15.34388921,.0001293,53.1603,239.9269,88.9660,271.1490,0,U,58783,999,13622,.38331E-4,.919E-5,0
STARLINK-31039,2024-011V,2026-06-20T09:28:38.729280,15.30177531,.0000809,53.1576,256.6988,66.3845,293.7241,0,U,58784,999,13599,.10105E-3,.2633E-4,0
STARLINK-31034,2024-011W,2026-06-20T08:43:22.764288,15.34407101,.0001338,53.1596,152.7691,88.2270,271.8885,0,U,58785,999,13747,-.1594E-4,-.915E-5,0
STARLINK-31024,2024-011X,2026-06-20T09:35:29.936256,15.30193820,.0001224,53.1603,254.6269,93.0851,267.0290,0,U,58786,999,13602,.17676E-4,.164E-5,0
STARLINK-31189,2024-012A,2026-06-20T08:50:57.433920,15.27576694,.0001642,42.9988,305.0032,192.7737,167.3073,0,U,58787,999,13694,.26327E-4,.462E-5,0
STARLINK-31185,2024-012B,2026-06-20T10:12:22.311936,15.27578680,.000136,43.0031,305.4353,273.1032,86.9664,0,U,58788,999,13694,.18396E-4,.244E-5,0
STARLINK-31166,2024-012C,2026-06-20T09:15:00.986112,15.27574637,.0001235,43.0019,305.1320,268.9434,91.1276,0,U,58789,999,13694,.82115E-6,-.239E-5,0
STARLINK-31187,2024-012D,2026-06-20T10:10:31.623168,15.27575906,.000101,43.0020,305.4232,263.6753,96.3983,0,U,58790,999,13694,-.9839E-5,-.533E-5,0
STARLINK-31162,2024-012E,2026-06-20T10:47:19.577760,15.27574910,.0001394,43.0016,304.7636,268.2009,91.8683,0,U,58791,999,13695,.19918E-5,-.207E-5,0
STARLINK-31184,2024-012G,2026-06-20T09:05:46.198752,15.27564565,.0001197,43.0028,305.0879,273.1693,86.9022,0,U,58793,999,13694,.45767E-4,.997E-5,0
STARLINK-31192,2024-012H,2026-06-20T10:06:47.169792,15.27594932,.0001023,43.0033,305.3969,217.0375,143.0406,0,U,58794,999,13694,.12733E-3,.3245E-4,0
STARLINK-31161,2024-012J,2026-06-20T10:43:37.320672,15.27575777,.0001294,42.9986,304.7332,255.0307,105.0401,0,U,58795,999,13695,-.29938E-4,-.1086E-4,0
STARLINK-31195,2024-012K,2026-06-20T10:17:55.320864,15.27583982,.0001359,43.0040,305.4601,261.0969,98.9729,0,U,58796,999,13694,-.28114E-4,-.1036E-4,0
STARLINK-31193,2024-012L,2026-06-20T10:56:34.398816,15.27572289,.0001242,43.0018,304.8020,265.6485,94.4225,0,U,58797,999,13695,.24017E-4,.399E-5,0
STARLINK-31168,2024-012M,2026-06-20T09:27:59.914080,15.27555678,.000251,43.0021,305.1970,299.9995,60.0607,0,U,58798,999,13694,-.53913E-4,-.1745E-4,0
STARLINK-31191,2024-012P,2026-06-20T10:34:22.245600,15.27575494,.0001515,43.0023,304.6855,274.7497,85.3182,0,U,58800,999,13695,.98599E-5,.9E-7,0
