[
  {
    "name": "STARLINK-31114",
    "noradId": "58766",
    "line1": "1 58766U 24011B   26171.39860404 -.00003229  00000+0 -97019-4 0  9998",
    "line2": "2 58766  53.1601 254.6296 0001156  92.6303 267.4830 15.30178040136021"
  },
  {
    "name": "STARLINK-31140",
    "noradId": "58767",
    "line1": "1 58767U 24011C   26170.51269012  .00001834  00000+0  65420-4 0  9999",
    "line2": "2 58767  53.1591 260.4490 0001101 106.5565 253.5558 15.34391878135860"
  },
  {
    "name": "STARLINK-31146",
    "noradId": "58769",
    "line1": "1 58769U 24011E   26171.43090926  .00003428  00000+0  11258-3 0  9999",
    "line2": "2 58769  53.1592 256.2290 0001087  86.4480 273.6647 15.34391153136004"
  },
  {
    "name": "STARLINK-31143",
    "noradId": "58770",
    "line1": "1 58770U 24011F   26169.22157463  .00001298  00000+0  55953-4 0  9999",
    "line2": "2 58770  53.1625 266.6183 0001501 110.8787 249.2375 15.30193975135668"
  },
  {
    "name": "STARLINK-31135",
    "noradId": "58771",
    "line1": "1 58771U 24011G   26171.45335760  .00000480  00000+0  28340-4 0  9998",
    "line2": "2 58771  53.1628 254.2610 0001543 107.4982 252.6188 15.30192438136030"
  },
  {
    "name": "STARLINK-31136",
    "noradId": "58772",
    "line1": "1 58772U 24011H   26170.50638221 -.00000621  00000+0 -72576-5 0  9992",
    "line2": "2 58772  53.1614 260.4086 0001098  88.9759 271.1370 15.34387933135850"
  },
  {
    "name": "STARLINK-31073",
    "noradId": "58773",
    "line1": "1 58773U 24011J   26171.39278743  .00000271  00000+0  21294-4 0  9999",
    "line2": "2 58773  53.1607 256.7020 0001369 108.5680 251.5469 15.30198380135990"
  },
  {
    "name": "STARLINK-31122",
    "noradId": "58774",
    "line1": "1 58774U 24011K   26171.39911677  .00001234  00000+0  53786-4 0  9991",
    "line2": "2 58774  53.1599 256.7313 0001243  93.3049 266.8094 15.30193616135997"
  },
  {
    "name": "STARLINK-31123",
    "noradId": "58775",
    "line1": "1 58775U 24011L   26171.45396605  .00023985  00000+0  71795-3 0  9993",
    "line2": "2 58775  53.1575 255.6587 0001856  16.9563 343.1501 15.34434067  9269"
  },
  {
    "name": "STARLINK-31117",
    "noradId": "58776",
    "line1": "1 58776U 24011M   26171.40650984  .00000342  00000+0  23665-4 0  9998",
    "line2": "2 58776  53.1602 256.7765 0001178  80.9163 279.1971 15.30194712135990"
  },
  {
    "name": "STARLINK-31132",
    "noradId": "58777",
    "line1": "1 58777U 24011N   26171.27664508  .00000785  00000+0  37047-4 0  9991",
    "line2": "2 58777  53.1608 166.4647 0001275  97.1003 263.0144 15.31713498137270"
  },
  {
    "name": "STARLINK-31120",
    "noradId": "58778",
    "line1": "1 58778U 24011P   26171.42880169  .00000271  00000+0  19148-4 0  9994",
    "line2": "2 58778  53.1606 256.2048 0001275  74.4587 285.6557 15.34392163136000"
  },
  {
    "name": "STARLINK-31142",
    "noradId": "58779",
    "line1": "1 58779U 24011Q   26171.40439722 -.00000291  00000+0  22954-5 0  9991",
    "line2": "2 58779  53.1609 256.7642 0001202  99.2151 260.8986 15.30194847135994"
  },
  {
    "name": "STARLINK-31099",
    "noradId": "58781",
    "line1": "1 58781U 24011S   26171.40123139  .00000122  00000+0  16250-4 0  9999",
    "line2": "2 58781  53.1605 256.7411 0001140  92.0102 268.1030 15.30191707135998"
  },
  {
    "name": "STARLINK-31047",
    "noradId": "58783",
    "line1": "1 58783U 24011U   26171.39606440  .00000919  00000+0  38331-4 0  9998",
    "line2": "2 58783  53.1603 239.9269 0001293  88.9660 271.1490 15.34388921136225"
  },
  {
    "name": "STARLINK-31039",
    "noradId": "58784",
    "line1": "1 58784U 24011V   26171.39489270  .00002633  00000+0  10105-3 0  9992",
    "line2": "2 58784  53.1576 256.6988 0000809  66.3845 293.7241 15.30177531135992"
  },
  {
    "name": "STARLINK-31034",
    "noradId": "58785",
    "line1": "1 58785U 24011W   26171.36345792 -.00000915  00000+0 -15940-4 0  9996",
    "line2": "2 58785  53.1596 152.7691 0001338  88.2270 271.8885 15.34407101137474"
  },
  {
    "name": "STARLINK-31024",
    "noradId": "58786",
    "line1": "1 58786U 24011X   26171.39965204  .00000164  00000+0  17676-4 0  9998",
    "line2": "2 58786  53.1603 254.6269 0001224  93.0851 267.0290 15.30193820136023"
  },
  {
    "name": "STARLINK-31189",
    "noradId": "58787",
    "line1": "1 58787U 24012A   26171.36872030  .00000462  00000+0  26327-4 0  9995",
    "line2": "2 58787  42.9988 305.0032 0001642 192.7737 167.3073 15.27576694136941"
  },
  {
    "name": "STARLINK-31185",
    "noradId": "58788",
    "line1": "1 58788U 24012B   26171.42525824  .00000244  00000+0  18396-4 0  9994",
    "line2": "2 58788  43.0031 305.4353 0001360 273.1032  86.9664 15.27578680136941"
  },
  {
    "name": "STARLINK-31166",
    "noradId": "58789",
    "line1": "1 58789U 24012C   26171.38542808 -.00000239  00000+0  82115-6 0  9998",
    "line2": "2 58789  43.0019 305.1320 0001235 268.9434  91.1276 15.27574637136943"
  },
  {
    "name": "STARLINK-31187",
    "noradId": "58790",
    "line1": "1 58790U 24012D   26171.42397712 -.00000533  00000+0 -98390-5 0  9996",
    "line2": "2 58790  43.0020 305.4232 0001010 263.6753  96.3983 15.27575906136941"
  },
  {
    "name": "STARLINK-31162",
    "noradId": "58791",
    "line1": "1 58791U 24012E   26171.44953215 -.00000207  00000+0  19918-5 0  9991",
    "line2": "2 58791  43.0016 304.7636 0001394 268.2009  91.8683 15.27574910136959"
  },
  {
    "name": "STARLINK-31184",
    "noradId": "58793",
    "line1": "1 58793U 24012G   26171.37900693  .00000997  00000+0  45767-4 0  9992",
    "line2": "2 58793  43.0028 305.0879 0001197 273.1693  86.9022 15.27564565136948"
  },
  {
    "name": "STARLINK-31192",
    "noradId": "58794",
    "line1": "1 58794U 24012H   26171.42137928  .00003245  00000+0  12733-3 0  9997",
    "line2": "2 58794  43.0033 305.3969 0001023 217.0375 143.0406 15.27594932136942"
  },
  {
    "name": "STARLINK-31161",
    "noradId": "58795",
    "line1": "1 58795U 24012J   26171.44695973 -.00001086  00000+0 -29938-4 0  9998",
    "line2": "2 58795  42.9986 304.7332 0001294 255.0307 105.0401 15.27575777136952"
  },
  {
    "name": "STARLINK-31195",
    "noradId": "58796",
    "line1": "1 58796U 24012K   26171.42911251 -.00001036  00000+0 -28114-4 0  9997",
    "line2": "2 58796  43.0040 305.4601 0001359 261.0969  98.9729 15.27583982136945"
  },
  {
    "name": "STARLINK-31193",
    "noradId": "58797",
    "line1": "1 58797U 24012L   26171.45595369  .00000399  00000+0  24017-4 0  9996",
    "line2": "2 58797  43.0018 304.8020 0001242 265.6485  94.4225 15.27572289136954"
  },
  {
    "name": "STARLINK-31168",
    "noradId": "58798",
    "line1": "1 58798U 24012M   26171.39444345 -.00001745  00000+0 -53913-4 0  9992",
    "line2": "2 58798  43.0021 305.1970 0002510 299.9995  60.0607 15.27555678136947"
  },
  {
    "name": "STARLINK-31191",
    "noradId": "58800",
    "line1": "1 58800U 24012P   26171.44053525  .00000009  00000+0  98599-5 0  9998",
    "line2": "2 58800  43.0023 304.6855 0001515 274.7497  85.3182 15.27575494136958"
  }
]